[
    {
        "Altitude(m)": 622200.1427713117,
        "Argument of Periapsis(deg)": 0.0,
        "Eccentricity": 0.0,
        "Inclination(deg)": 60.0,
        "Latitude(deg)": -52.16263640167599,
        "Longitude(deg)": -122.63932659001841,
        "Mean Anomaly(deg)": 294.5455,
        "RAAN(deg)": 25.0,
        "Satellite Name": "Test1 128",
        "Satellite Number": 128,
        "Semi-Major Axis(m)": 6980739.136638005,
        "Time(s)": 0
    },
    {
        "Altitude(m)": 622058.3109300546,
        "Argument of Periapsis(deg)": 0.00010418945913296404,
        "Eccentricity": 0.0,
        "Inclination(deg)": 60.0,
        "Latitude(deg)": -51.799386881139704,
        "Longitude(deg)": -121.87126600763185,
        "Mean Anomaly(deg)": 295.1656061454619,
        "RAAN(deg)": 24.99957995086026,
        "Satellite Name": "Test1 128",
        "Satellite Number": 128,
        "Semi-Major Axis(m)": 6980739.136638005,
        "Time(s)": 10
    },
    {
        "Altitude(m)": 621913.745787894,
        "Argument of Periapsis(deg)": 0.0002083789182659281,
        "Eccentricity": 0.0,
        "Inclination(deg)": 60.0,
        "Latitude(deg)": -51.43062575304825,
        "Longitude(deg)": -121.11618425204914,
        "Mean Anomaly(deg)": 295.78571229092364,
        "RAAN(deg)": 24.999159901720514,
        "Satellite Name": "Test1 128",
        "Satellite Number": 128,
        "Semi-Major Axis(m)": 6980739.136638005,
        "Time(s)": 20
    },
    {
        "Altitude(m)": 621766.5037839964,
        "Argument of Periapsis(deg)": 0.00031256837739889213,
        "Eccentricity": 0.0,
        "Inclination(deg)": 60.0,
        "Latitude(deg)": -51.0565101390148,
        "Longitude(deg)": -120.37389162673986,
        "Mean Anomaly(deg)": 296.4058184363855,
        "RAAN(deg)": 24.998739852580773,
        "Satellite Name": "Test1 128",
        "Satellite Number": 128,
        "Semi-Major Axis(m)": 6980739.136638005,
        "Time(s)": 30
    },
    {
        "Altitude(m)": 621616.642373934,
        "Argument of Periapsis(deg)": 0.0004167578365318562,
        "Eccentricity": 0.0,
        "Inclination(deg)": 60.0,
        "Latitude(deg)": -50.67719347011722,
        "Longitude(deg)": -119.64419066948925,
        "Mean Anomaly(deg)": 297.0259245818473,
        "RAAN(deg)": 24.998319803441028,
        "Satellite Name": "Test1 128",
        "Satellite Number": 128,
        "Semi-Major Axis(m)": 6980739.136638005,
        "Time(s)": 40
    },
    {
        "Altitude(m)": 621464.2200050977,
        "Argument of Periapsis(deg)": 0.0005209472956648203,
        "Eccentricity": 0.0,
        "Inclination(deg)": 60.0,
        "Latitude(deg)": -50.29282545988968,
        "Longitude(deg)": -118.92687820225326,
        "Mean Anomaly(deg)": 297.6460307273092,
        "RAAN(deg)": 24.997899754301287,
        "Satellite Name": "Test1 128",
        "Satellite Number": 128,
        "Semi-Major Axis(m)": 6980739.136638005,
        "Time(s)": 50
    },
    {
        "Altitude(m)": 621309.2960916288,
        "Argument of Periapsis(deg)": 0.0006251367547977843,
        "Eccentricity": 0.0,
        "Inclination(deg)": 60.0,
        "Latitude(deg)": -49.90355209187105,
        "Longitude(deg)": -118.22174579879086,
        "Mean Anomaly(deg)": 298.266136872771,
        "RAAN(deg)": 24.997479705161545,
        "Satellite Name": "Test1 128",
        "Satellite Number": 128,
        "Semi-Major Axis(m)": 6980739.136638005,
        "Time(s)": 60
    },
    {
        "Altitude(m)": 621151.9309889551,
        "Argument of Periapsis(deg)": 0.0007293262139307483,
        "Eccentricity": 0.0,
        "Inclination(deg)": 60.0,
        "Latitude(deg)": -49.50951562030474,
        "Longitude(deg)": -117.52858018435317,
        "Mean Anomaly(deg)": 298.88624301823285,
        "RAAN(deg)": 24.997059656021804,
        "Satellite Name": "Test1 128",
        "Satellite Number": 128,
        "Semi-Major Axis(m)": 6980739.136638005,
        "Time(s)": 70
    },
    {
        "Altitude(m)": 620992.1859678769,
        "Argument of Periapsis(deg)": 0.0008335156730637124,
        "Eccentricity": 0.0,
        "Inclination(deg)": 60.0,
        "Latitude(deg)": -49.11085458265646,
        "Longitude(deg)": -116.84716508213022,
        "Mean Anomaly(deg)": 299.50634916369467,
        "RAAN(deg)": 24.99663960688206,
        "Satellite Name": "Test1 128",
        "Satellite Number": 128,
        "Semi-Major Axis(m)": 6980739.136638005,
        "Time(s)": 80
    },
    {
        "Altitude(m)": 620830.1231882457,
        "Argument of Periapsis(deg)": 0.0009377051321966765,
        "Eccentricity": 0.0,
        "Inclination(deg)": 60.0,
        "Latitude(deg)": -48.70770382269252,
        "Longitude(deg)": -116.1772814828565,
        "Mean Anomaly(deg)": 300.1264553091565,
        "RAAN(deg)": 24.996219557742318,
        "Satellite Name": "Test1 128",
        "Satellite Number": 128,
        "Semi-Major Axis(m)": 6980739.136638005,
        "Time(s)": 90
    },
    {
        "Altitude(m)": 620665.8056722578,
        "Argument of Periapsis(deg)": 0.0010418945913296407,
        "Eccentricity": 0.0,
        "Inclination(deg)": 60.0,
        "Latitude(deg)": -48.30019452293408,
        "Longitude(deg)": -115.5187078528708,
        "Mean Anomaly(deg)": 300.74656145461836,
        "RAAN(deg)": 24.995799508602577,
        "Satellite Name": "Test1 128",
        "Satellite Number": 128,
        "Semi-Major Axis(m)": 6980739.136638005,
        "Time(s)": 100
    },
    {
        "Altitude(m)": 620499.2972773243,
        "Argument of Periapsis(deg)": 0.0011460840504626045,
        "Eccentricity": 0.0,
        "Inclination(deg)": 60.0,
        "Latitude(deg)": -47.88845424537862,
        "Longitude(deg)": -114.87122179612186,
        "Mean Anomaly(deg)": 301.3666676000801,
        "RAAN(deg)": 24.99537945946283,
        "Satellite Name": "Test1 128",
        "Satellite Number": 128,
        "Semi-Major Axis(m)": 6980739.136638005,
        "Time(s)": 110
    },
    {
        "Altitude(m)": 620330.6626685725,
        "Argument of Periapsis(deg)": 0.0012502735095955685,
        "Eccentricity": 0.0,
        "Inclination(deg)": 60.0,
        "Latitude(deg)": -47.47260697946057,
        "Longitude(deg)": -114.23460014712381,
        "Mean Anomaly(deg)": 301.986773745542,
        "RAAN(deg)": 24.994959410323087,
        "Satellite Name": "Test1 128",
        "Satellite Number": 128,
        "Semi-Major Axis(m)": 6980739.136638005,
        "Time(s)": 120
    },
    {
        "Altitude(m)": 620159.9672910034,
        "Argument of Periapsis(deg)": 0.0013544629687285324,
        "Eccentricity": 0.0,
        "Inclination(deg)": 60.0,
        "Latitude(deg)": -47.05277319629414,
        "Longitude(deg)": -113.60861901058466,
        "Mean Anomaly(deg)": 302.6068798910038,
        "RAAN(deg)": 24.994539361183342,
        "Satellite Name": "Test1 128",
        "Satellite Number": 128,
        "Semi-Major Axis(m)": 6980739.136638005,
        "Time(s)": 130
    },
    {
        "Altitude(m)": 619987.2773412352,
        "Argument of Periapsis(deg)": 0.0014586524278614966,
        "Eccentricity": 0.0,
        "Inclination(deg)": 60.0,
        "Latitude(deg)": -46.629069908315756,
        "Longitude(deg)": -112.99305526348043,
        "Mean Anomaly(deg)": 303.22698603646563,
        "RAAN(deg)": 24.9941193120436,
        "Satellite Name": "Test1 128",
        "Satellite Number": 128,
        "Semi-Major Axis(m)": 6980739.136638005,
        "Time(s)": 140
    },
    {
        "Altitude(m)": 619812.659738953,
        "Argument of Periapsis(deg)": 0.0015628418869944607,
        "Eccentricity": 0.0,
        "Inclination(deg)": 60.0,
        "Latitude(deg)": -46.20161073351732,
        "Longitude(deg)": -112.38768649673052,
        "Mean Anomaly(deg)": 303.84709218192745,
        "RAAN(deg)": 24.99369926290386,
        "Satellite Name": "Test1 128",
        "Satellite Number": 128,
        "Semi-Major Axis(m)": 6980739.136638005,
        "Time(s)": 150
    },
    {
        "Altitude(m)": 619636.1820979923,
        "Argument of Periapsis(deg)": 0.0016670313461274247,
        "Eccentricity": 0.0,
        "Inclination(deg)": 60.0,
        "Latitude(deg)": -45.77050596352715,
        "Longitude(deg)": -111.79229091223928,
        "Mean Anomaly(deg)": 304.46719832738927,
        "RAAN(deg)": 24.99327921376412,
        "Satellite Name": "Test1 128",
        "Satellite Number": 128,
        "Semi-Major Axis(m)": 6980739.136638005,
        "Time(s)": 160
    },
    {
        "Altitude(m)": 619457.9126971058,
        "Argument of Periapsis(deg)": 0.0017712208052603888,
        "Eccentricity": 0.0,
        "Inclination(deg)": 60.0,
        "Latitude(deg)": -45.33586263486066,
        "Longitude(deg)": -111.20664869102508,
        "Mean Anomaly(deg)": 305.0873044728511,
        "RAAN(deg)": 24.992859164624374,
        "Satellite Name": "Test1 128",
        "Satellite Number": 128,
        "Semi-Major Axis(m)": 6980739.136638005,
        "Time(s)": 170
    },
    {
        "Altitude(m)": 619277.9204504134,
        "Argument of Periapsis(deg)": 0.001875410264393353,
        "Eccentricity": 0.0,
        "Inclination(deg)": 60.0,
        "Latitude(deg)": -44.897784602726965,
        "Longitude(deg)": -110.63054180946389,
        "Mean Anomaly(deg)": 305.70741061831296,
        "RAAN(deg)": 24.992439115484633,
        "Satellite Name": "Test1 128",
        "Satellite Number": 128,
        "Semi-Major Axis(m)": 6980739.136638005,
        "Time(s)": 180
    },
    {
        "Altitude(m)": 619096.2748775632,
        "Argument of Periapsis(deg)": 0.0019795997235263173,
        "Eccentricity": 0.0,
        "Inclination(deg)": 60.0,
        "Latitude(deg)": -44.45637261683612,
        "Longitude(deg)": -110.06375381922335,
        "Mean Anomaly(deg)": 306.3275167637747,
        "RAAN(deg)": 24.99201906634489,
        "Satellite Name": "Test1 128",
        "Satellite Number": 128,
        "Semi-Major Axis(m)": 6980739.136638005,
        "Time(s)": 190
    }
]